FLOCK 4H-33             
1 66736U 25276BY  26189.65215844  .00004058  00000+0  18535-3 0  9992
2 66736  97.4212 263.2361 0002139 180.1602 179.9633 15.21138698 33706
FLOCK 4H-34             
1 66737U 25276BZ  26190.16398743  .00005243  00000+0  24104-3 0  9997
2 66737  97.4229 263.6654 0001986 188.1740 171.9464 15.20785307 33027
FLOCK 4H-35             
1 66738U 25276CA  26189.74543881  .00004806  00000+0  22049-3 0  9995
2 66738  97.4188 263.1934 0002006 166.0500 194.0791 15.20899914 33008
FLOCK 4H-36             
1 66739U 25276CB  26189.45397081  .00003460  00000+0  16075-3 0  9990
2 66739  97.4237 262.9595 0001766 207.9780 152.1361 15.20662415 33665
